{
  "countries": [
    {
      "name": "Ø§Ù„Ø¬Ø²Ø§Ø¦Ø± ðŸ‡©ðŸ‡¿",
      "code": "dz",
      "phonecode": 213
    },
    {
      "name": "Ø§Ù„Ù…ØºØ±Ø¨ ðŸ‡²ðŸ‡¦",
      "code": "ma",
      "phonecode": 212
    },
    {
      "name": "Ø³ÙˆØ±ÙŠØ§ ðŸ‡¸ðŸ‡¾",
      "code": "sy",
      "phonecode": 963
    },
    {
      "name": "Ù…ÙˆØ±ÙŠØªØ§Ù†ÙŠØ§ ðŸ‡²ðŸ‡·",
      "code": "mr",
      "phonecode": 222
    },
    {
      "name": "Ø§Ù„Ø³ÙˆØ¯Ø§Ù† ðŸ‡¸ðŸ‡©",
      "code": "sd",
      "phonecode": 249
    },
    {
      "name": "Ù…ØµØ± ðŸ‡ªðŸ‡¬",
      "code": "eg",
      "phonecode": 20
    },
    {
      "name": "ØªÙˆÙ†Ø³ ðŸ‡¹ðŸ‡³",
      "code": "tn",
      "phonecode": 216
    },
    {
      "name": "Ù„ÙŠØ¨ÙŠØ§ ðŸ‡±ðŸ‡¾",
      "code": "ly",
      "phonecode": 218
    },
    {
      "name": "Ø§Ù„Ø§Ø±Ø¯Ù† ðŸ‡¯ðŸ‡´",
      "code": "jo",
      "phonecode": 962
    },
    {
      "name": "Ø§Ù„Ø¹Ø±Ø§Ù‚ ðŸ‡®ðŸ‡¶",
      "code": "iq",
      "phonecode": 964
    },
    {
      "name": "Ù‚Ø·Ø± ðŸ‡¶ðŸ‡¦",
      "code": "qa",
      "phonecode": 974
    },
    {
      "name": "Ø§Ù„ÙŠÙ…Ù† ðŸ‡¾ðŸ‡ª",
      "code": "ye",
      "phonecode": 967
    }
  ]
}